start=new Date('2021-12-21T00:00:00.000Z').valueOf();
sats=[{"MEAN_MOTION":"15.06417085","MEAN_ANOMALY":"288.9440","COUNTRY_CODE":"US","TLE_LINE2":"2 46581  53.0526 228.9614 0002649  71.1836 288.9440 15.06417085 67708","CENTER_NAME":"EARTH","TIME_SYSTEM":"UTC","DECAY_DATE":null,"FILE":"3245895","SEMIMAJOR_AXIS":"6925.296","CLASSIFICATION_TYPE":"U","REV_AT_EPOCH":"6770","INCLINATION":"53.0526","EPHEMERIS_TYPE":"0","SITE":"AFETR","MEAN_ELEMENT_THEORY":"SGP4","OBJECT_ID":"2020-070BB","ELEMENT_SET_NO":"999","ECCENTRICITY":"0.00026490","PERIAPSIS":"545.327","BSTAR":"0.00049528000000","GP_ID":"192112700","NORAD_CAT_ID":"46581","OBJECT_NAME":"STARLINK-1712","LAUNCH_DATE":"2020-10-06","EPOCH":"2021-12-20T21:45:27.139104","MEAN_MOTION_DOT":"0.00007107","MEAN_MOTION_DDOT":"0.0000000000000","APOAPSIS":"548.996","REF_FRAME":"TEME","PERIOD":"95.591","RA_OF_ASC_NODE":"228.9614","ARG_OF_PERICENTER":"71.1836","TLE_LINE1":"1 46581U 20070BB  21354.90656411  .00007107  00000-0  49528-3 0  9996","OBJECT_TYPE":"PAYLOAD","RCS_SIZE":"LARGE"},{"MEAN_ELEMENT_THEORY":"SGP4","INCLINATION":"53.0534","SITE":"AFETR","EPHEMERIS_TYPE":"0","REV_AT_EPOCH":"6770","CLASSIFICATION_TYPE":"U","SEMIMAJOR_AXIS":"6925.356","FILE":"3245895","DECAY_DATE":null,"TIME_SYSTEM":"UTC","CENTER_NAME":"EARTH","TLE_LINE2":"2 46582  53.0534 228.9832 0002647  73.7835 286.3445 15.06397438 67701","COUNTRY_CODE":"US","MEAN_ANOMALY":"286.3445","MEAN_MOTION":"15.06397438","RCS_SIZE":"LARGE","ARG_OF_PERICENTER":"73.7835","TLE_LINE1":"1 46582U 20070BC  21354.89182388  .00004706  00000-0  33464-3 0  9996","OBJECT_TYPE":"PAYLOAD","PERIOD":"95.592","RA_OF_ASC_NODE":"228.9832","REF_FRAME":"TEME","APOAPSIS":"549.055","MEAN_MOTION_DOT":"0.00004706","MEAN_MOTION_DDOT":"0.0000000000000","OBJECT_NAME":"STARLINK-1728","LAUNCH_DATE":"2020-10-06","EPOCH":"2021-12-20T21:24:13.583232","NORAD_CAT_ID":"46582","GP_ID":"192112951","BSTAR":"0.00033464000000","ECCENTRICITY":"0.00026470","PERIAPSIS":"545.388","OBJECT_ID":"2020-070BC","ELEMENT_SET_NO":"999"},{"DECAY_DATE":null,"FILE":"3245895","SEMIMAJOR_AXIS":"6925.356","CLASSIFICATION_TYPE":"U","REV_AT_EPOCH":"6741","SITE":"AFETR","EPHEMERIS_TYPE":"0","INCLINATION":"53.0528","MEAN_ELEMENT_THEORY":"SGP4","MEAN_MOTION":"15.06397622","MEAN_ANOMALY":"292.1803","COUNTRY_CODE":"US","TLE_LINE2":"2 46583  53.0528 249.1209 0002540  67.9455 292.1803 15.06397622 67419","CENTER_NAME":"EARTH","TIME_SYSTEM":"UTC","REF_FRAME":"TEME","RA_OF_ASC_NODE":"249.1209","PERIOD":"95.592","OBJECT_TYPE":"PAYLOAD","TLE_LINE1":"1 46583U 20070BD  21354.87523108 -.00000142  00000-0  94113-5 0  9995","ARG_OF_PERICENTER":"67.9455","RCS_SIZE":"LARGE","ELEMENT_SET_NO":"999","OBJECT_ID":"2020-070BD","PERIAPSIS":"545.462","ECCENTRICITY":"0.00025400","NORAD_CAT_ID":"46583","GP_ID":"192111699","BSTAR":"0.00000941130000","EPOCH":"2021-12-20T21:00:19.965312","OBJECT_NAME":"STARLINK-1729","LAUNCH_DATE":"2020-10-06","MEAN_MOTION_DDOT":"0.0000000000000","MEAN_MOTION_DOT":"-0.00000142","APOAPSIS":"548.980"},{"MEAN_MOTION":"15.06409667","MEAN_ANOMALY":"284.6736","COUNTRY_CODE":"US","TLE_LINE2":"2 46584  53.0533 229.0133 0002682  75.4550 284.6736 15.06409667 67702","CENTER_NAME":"EARTH","TIME_SYSTEM":"UTC","DECAY_DATE":null,"FILE":"3245895","SEMIMAJOR_AXIS":"6925.319","CLASSIFICATION_TYPE":"U","REV_AT_EPOCH":"6770","EPHEMERIS_TYPE":"0","SITE":"AFETR","INCLINATION":"53.0533","MEAN_ELEMENT_THEORY":"SGP4","OBJECT_ID":"2020-070BE","ELEMENT_SET_NO":"999","PERIAPSIS":"545.327","ECCENTRICITY":"0.00026820","GP_ID":"192111949","NORAD_CAT_ID":"46584","BSTAR":"0.00023264000000","EPOCH":"2021-12-20T21:29:31.249248","OBJECT_NAME":"STARLINK-1732","LAUNCH_DATE":"2020-10-06","MEAN_MOTION_DDOT":"0.0000000000000","MEAN_MOTION_DOT":"0.00003186","APOAPSIS":"549.041","REF_FRAME":"TEME","RA_OF_ASC_NODE":"229.0133","PERIOD":"95.592","TLE_LINE1":"1 46584U 20070BE  21354.89550057  .00003186  00000-0  23264-3 0  9998","OBJECT_TYPE":"PAYLOAD","ARG_OF_PERICENTER":"75.4550","RCS_SIZE":"LARGE"},{"ARG_OF_PERICENTER":"74.4049","OBJECT_TYPE":"PAYLOAD","TLE_LINE1":"1 46585U 20070BF  21354.91392882  .00000826  00000-0  74378-4 0  9993","PERIOD":"95.592","RA_OF_ASC_NODE":"228.9480","RCS_SIZE":"LARGE","REF_FRAME":"TEME","MEAN_MOTION_DOT":"0.00000826","MEAN_MOTION_DDOT":"0.0000000000000","OBJECT_NAME":"STARLINK-1736","LAUNCH_DATE":"2020-10-06","EPOCH":"2021-12-20T21:56:03.450048","APOAPSIS":"548.941","ECCENTRICITY":"0.00025200","PERIAPSIS":"545.451","OBJECT_ID":"2020-070BF","ELEMENT_SET_NO":"999","BSTAR":"0.00007437800000","GP_ID":"192113200","NORAD_CAT_ID":"46585","REV_AT_EPOCH":"6770","MEAN_ELEMENT_THEORY":"SGP4","INCLINATION":"53.0540","EPHEMERIS_TYPE":"0","SITE":"AFETR","FILE":"3245895","DECAY_DATE":null,"CLASSIFICATION_TYPE":"U","SEMIMAJOR_AXIS":"6925.331","TLE_LINE2":"2 46585  53.0540 228.9480 0002520  74.4049 285.7218 15.06405702 67700","COUNTRY_CODE":"US","TIME_SYSTEM":"UTC","CENTER_NAME":"EARTH","MEAN_ANOMALY":"285.7218","MEAN_MOTION":"15.06405702"},{"MEAN_ANOMALY":"291.8841","MEAN_MOTION":"15.06405990","COUNTRY_CODE":"US","TLE_LINE2":"2 46586  53.0547 228.9952 0002242  68.2386 291.8841 15.06405990 67707","CENTER_NAME":"EARTH","TIME_SYSTEM":"UTC","DECAY_DATE":null,"FILE":"3245895","SEMIMAJOR_AXIS":"6925.330","CLASSIFICATION_TYPE":"U","REV_AT_EPOCH":"6770","SITE":"AFETR","EPHEMERIS_TYPE":"0","INCLINATION":"53.0547","MEAN_ELEMENT_THEORY":"SGP4","OBJECT_ID":"2020-070BG","ELEMENT_SET_NO":"999","PERIAPSIS":"545.643","ECCENTRICITY":"0.00022420","NORAD_CAT_ID":"46586","GP_ID":"192113451","BSTAR":"0.00011678000000","EPOCH":"2021-12-20T21:40:07.846176","LAUNCH_DATE":"2020-10-06","OBJECT_NAME":"STARLINK-1737","MEAN_MOTION_DDOT":"0.0000000000000","MEAN_MOTION_DOT":"0.00001458","APOAPSIS":"548.748","REF_FRAME":"TEME","RA_OF_ASC_NODE":"228.9952","PERIOD":"95.592","TLE_LINE1":"1 46586U 20070BG  21354.90286859  .00001458  00000-0  11678-3 0  9994","OBJECT_TYPE":"PAYLOAD","ARG_OF_PERICENTER":"68.2386","RCS_SIZE":"LARGE"},{"OBJECT_ID":"2020-070BJ","ELEMENT_SET_NO":"999","ECCENTRICITY":"0.00023380","PERIAPSIS":"545.577","GP_ID":"192112199","NORAD_CAT_ID":"46588","BSTAR":"0.00023700000000","LAUNCH_DATE":"2020-10-06","OBJECT_NAME":"STARLINK-1746","EPOCH":"2021-12-20T21:13:36.032448","MEAN_MOTION_DOT":"0.00003251","MEAN_MOTION_DDOT":"0.0000000000000","APOAPSIS":"548.816","REF_FRAME":"TEME","PERIOD":"95.592","RA_OF_ASC_NODE":"229.0622","ARG_OF_PERICENTER":"71.8450","TLE_LINE1":"1 46588U 20070BJ  21354.88444482  .00003251  00000-0  23700-3 0  9993","OBJECT_TYPE":"PAYLOAD","RCS_SIZE":"LARGE","MEAN_ANOMALY":"288.2793","MEAN_MOTION":"15.06405593","COUNTRY_CODE":"US","TLE_LINE2":"2 46588  53.0535 229.0622 0002338  71.8450 288.2793 15.06405593 67705","CENTER_NAME":"EARTH","TIME_SYSTEM":"UTC","DECAY_DATE":null,"FILE":"3245895","SEMIMAJOR_AXIS":"6925.331","CLASSIFICATION_TYPE":"U","REV_AT_EPOCH":"6770","INCLINATION":"53.0535","EPHEMERIS_TYPE":"0","SITE":"AFETR","MEAN_ELEMENT_THEORY":"SGP4"},{"REF_FRAME":"TEME","RA_OF_ASC_NODE":"229.4023","PERIOD":"95.592","TLE_LINE1":"1 46589U 20070BK  21354.81073121  .00001259  00000-0  10345-3 0  9992","OBJECT_TYPE":"PAYLOAD","ARG_OF_PERICENTER":"66.9540","RCS_SIZE":"LARGE","ELEMENT_SET_NO":"999","OBJECT_ID":"2020-070BK","PERIAPSIS":"545.663","ECCENTRICITY":"0.00022430","BSTAR":"0.00010345000000","GP_ID":"192112449","NORAD_CAT_ID":"46589","EPOCH":"2021-12-20T19:27:27.176544","OBJECT_NAME":"STARLINK-1749","LAUNCH_DATE":"2020-10-06","MEAN_MOTION_DDOT":"0.0000000000000","MEAN_MOTION_DOT":"0.00001259","APOAPSIS":"548.769","DECAY_DATE":null,"FILE":"3245895","SEMIMAJOR_AXIS":"6925.351","CLASSIFICATION_TYPE":"U","REV_AT_EPOCH":"6768","EPHEMERIS_TYPE":"0","SITE":"AFETR","INCLINATION":"53.0545","MEAN_ELEMENT_THEORY":"SGP4","MEAN_MOTION":"15.06399186","MEAN_ANOMALY":"293.1686","COUNTRY_CODE":"US","TLE_LINE2":"2 46589  53.0545 229.4023 0002243  66.9540 293.1686 15.06399186 67689","CENTER_NAME":"EARTH","TIME_SYSTEM":"UTC"},{"MEAN_MOTION":"15.43229024","MEAN_ANOMALY":"284.8564","TIME_SYSTEM":"UTC","CENTER_NAME":"EARTH","TLE_LINE2":"2 46590  53.0563 140.1100 0001264  75.2581 284.8564 15.43229024 68931","COUNTRY_CODE":"US","CLASSIFICATION_TYPE":"U","SEMIMAJOR_AXIS":"6814.724","FILE":"3245895","DECAY_DATE":null,"MEAN_ELEMENT_THEORY":"SGP4","SITE":"AFETR","EPHEMERIS_TYPE":"0","INCLINATION":"53.0563","REV_AT_EPOCH":"6893","GP_ID":"192112701","NORAD_CAT_ID":"46590","BSTAR":"0.00102240000000","PERIAPSIS":"435.727","ECCENTRICITY":"0.00012640","ELEMENT_SET_NO":"999","OBJECT_ID":"2020-070BL","APOAPSIS":"437.450","MEAN_MOTION_DDOT":"0.0000000000000","MEAN_MOTION_DOT":"0.00045980","EPOCH":"2021-12-20T17:28:38.711712","LAUNCH_DATE":"2020-10-06","OBJECT_NAME":"STARLINK-1754","REF_FRAME":"TEME","RCS_SIZE":"LARGE","TLE_LINE1":"1 46590U 20070BL  21354.72822583  .00045980  00000-0  10224-2 0  9992","OBJECT_TYPE":"PAYLOAD","ARG_OF_PERICENTER":"75.2581","RA_OF_ASC_NODE":"140.1100","PERIOD":"93.311"},{"TIME_SYSTEM":"UTC","CENTER_NAME":"EARTH","TLE_LINE2":"2 46591  53.0515 228.8691 0002665  70.2314 289.8963 15.06421971 66764","COUNTRY_CODE":"US","MEAN_MOTION":"15.06421971","MEAN_ANOMALY":"289.8963","MEAN_ELEMENT_THEORY":"SGP4","INCLINATION":"53.0515","SITE":"AFETR","EPHEMERIS_TYPE":"0","REV_AT_EPOCH":"6676","CLASSIFICATION_TYPE":"U","SEMIMAJOR_AXIS":"6925.281","FILE":"3245895","DECAY_DATE":null,"APOAPSIS":"548.992","MEAN_MOTION_DOT":"0.00009683","MEAN_MOTION_DDOT":"0.0000000000000","OBJECT_NAME":"STARLINK-1755","LAUNCH_DATE":"2020-10-06","EPOCH":"2021-12-20T22:22:37.024608","BSTAR":"0.00066766000000","GP_ID":"192112952","NORAD_CAT_ID":"46591","ECCENTRICITY":"0.00026650","PERIAPSIS":"545.301","OBJECT_ID":"2020-070BM","ELEMENT_SET_NO":"999","RCS_SIZE":"LARGE","ARG_OF_PERICENTER":"70.2314","OBJECT_TYPE":"PAYLOAD","TLE_LINE1":"1 46591U 20070BM  21354.93237297  .00009683  00000-0  66766-3 0  9991","PERIOD":"95.591","RA_OF_ASC_NODE":"228.8691","REF_FRAME":"TEME"}];
